CCSDS_OMM_VERS = 2.0
CREATION_DATE  = 
ORIGINATOR     = 

OBJECT_NAME    = STARLINK-36515
OBJECT_ID      = 2026-005AC
CENTER_NAME    = EARTH
REF_FRAME      = TEME
TIME_SYSTEM    = UTC
MEAN_ELEMENT_THEORY = SGP/SGP4

EPOCH          = 2026-01-25T20:00:03.000384
MEAN_MOTION    = 15.76784246
ECCENTRICITY   = .0001454
INCLINATION    = 43.0001
RA_OF_ASC_NODE = 125.6774
ARG_OF_PERICENTER = 295.6448
MEAN_ANOMALY   = 187.3343

EPHEMERIS_TYPE = 0
CLASSIFICATION_TYPE = U
NORAD_CAT_ID   = 67430
ELEMENT_SET_NO = 999
REV_AT_EPOCH   = 321
BSTAR          = -.10741E-1
MEAN_MOTION_DOT = -.1559292E-1
MEAN_MOTION_DDOT = 0

CCSDS_OMM_VERS = 2.0
CREATION_DATE  = 
ORIGINATOR     = 

OBJECT_NAME    = STARLINK-36443
OBJECT_ID      = 2026-005AD
CENTER_NAME    = EARTH
REF_FRAME      = TEME
TIME_SYSTEM    = UTC
MEAN_ELEMENT_THEORY = SGP/SGP4

EPOCH          = 2026-01-25T20:00:03.000384
MEAN_MOTION    = 15.76680382
ECCENTRICITY   = .0001621
INCLINATION    = 43.0001
RA_OF_ASC_NODE = 125.6619
ARG_OF_PERICENTER = 290.2673
MEAN_ANOMALY   = 198.6403

EPHEMERIS_TYPE = 0
CLASSIFICATION_TYPE = U
NORAD_CAT_ID   = 67431
ELEMENT_SET_NO = 999
REV_AT_EPOCH   = 324
BSTAR          = -.10911E-1
MEAN_MOTION_DOT = -.1574574E-1
MEAN_MOTION_DDOT = 0

CCSDS_OMM_VERS = 2.0
CREATION_DATE  = 
ORIGINATOR     = 

OBJECT_NAME    = STARLINK-36460
OBJECT_ID      = 2026-005AE
CENTER_NAME    = EARTH
REF_FRAME      = TEME
TIME_SYSTEM    = UTC
MEAN_ELEMENT_THEORY = SGP/SGP4

EPOCH          = 2026-01-25T20:00:03.000384
MEAN_MOTION    = 15.76695328
ECCENTRICITY   = .0001388
INCLINATION    = 43.0000
RA_OF_ASC_NODE = 125.6570
ARG_OF_PERICENTER = 288.9403
MEAN_ANOMALY   = 201.9039

EPHEMERIS_TYPE = 0
CLASSIFICATION_TYPE = U
NORAD_CAT_ID   = 67432
ELEMENT_SET_NO = 999
REV_AT_EPOCH   = 329
BSTAR          = -.11374E-1
MEAN_MOTION_DOT = -.1666394E-1
MEAN_MOTION_DDOT = 0

CCSDS_OMM_VERS = 2.0
CREATION_DATE  = 
ORIGINATOR     = 

OBJECT_NAME    = YAOGAN-50 01
OBJECT_ID      = 2026-006A
CENTER_NAME    = EARTH
REF_FRAME      = TEME
TIME_SYSTEM    = UTC
MEAN_ELEMENT_THEORY = SGP/SGP4

EPOCH          = 2026-01-25T19:28:48.518688
MEAN_MOTION    = 13.83250583
ECCENTRICITY   = .000069
INCLINATION    = 142.0305
RA_OF_ASC_NODE = 247.7431
ARG_OF_PERICENTER = 272.2456
MEAN_ANOMALY   = 87.8184

EPHEMERIS_TYPE = 0
CLASSIFICATION_TYPE = U
NORAD_CAT_ID   = 67433
ELEMENT_SET_NO = 999
REV_AT_EPOCH   = 171
BSTAR          = .19159E-3
MEAN_MOTION_DOT = .4E-5
MEAN_MOTION_DDOT = 0

CCSDS_OMM_VERS = 2.0
CREATION_DATE  = 
ORIGINATOR     = 

OBJECT_NAME    = CZ-6A R/B
OBJECT_ID      = 2026-006B
CENTER_NAME    = EARTH
REF_FRAME      = TEME
TIME_SYSTEM    = UTC
MEAN_ELEMENT_THEORY = SGP/SGP4

EPOCH          = 2026-01-25T14:23:41.596800
MEAN_MOTION    = 14.62271920
ECCENTRICITY   = .0202424
INCLINATION    = 142.0433
RA_OF_ASC_NODE = 253.5760
ARG_OF_PERICENTER = 169.8106
MEAN_ANOMALY   = 190.6801

EPHEMERIS_TYPE = 0
CLASSIFICATION_TYPE = U
NORAD_CAT_ID   = 67434
ELEMENT_SET_NO = 999
REV_AT_EPOCH   = 176
BSTAR          = .20725E-3
MEAN_MOTION_DOT = .1754E-4
MEAN_MOTION_DDOT = 0

CCSDS_OMM_VERS = 2.0
CREATION_DATE  = 
ORIGINATOR     = 

OBJECT_NAME    = HULIANWANG DIGUI-137
OBJECT_ID      = 2026-007A
CENTER_NAME    = EARTH
REF_FRAME      = TEME
TIME_SYSTEM    = UTC
MEAN_ELEMENT_THEORY = SGP/SGP4

EPOCH          = 2026-01-25T18:06:51.422112
MEAN_MOTION    = 13.88520819
ECCENTRICITY   = .0001349
INCLINATION    = 50.0118
RA_OF_ASC_NODE = 246.1588
ARG_OF_PERICENTER = 228.2080
MEAN_ANOMALY   = 131.8703

EPHEMERIS_TYPE = 0
CLASSIFICATION_TYPE = U
NORAD_CAT_ID   = 67435
ELEMENT_SET_NO = 999
REV_AT_EPOCH   = 169
BSTAR          = .20067E-3
MEAN_MOTION_DOT = .97E-6
MEAN_MOTION_DDOT = 0

CCSDS_OMM_VERS = 2.0
CREATION_DATE  = 
ORIGINATOR     = 

OBJECT_NAME    = HULIANWANG DIGUI-138
OBJECT_ID      = 2026-007B
CENTER_NAME    = EARTH
REF_FRAME      = TEME
TIME_SYSTEM    = UTC
MEAN_ELEMENT_THEORY = SGP/SGP4

EPOCH          = 2026-01-25T18:10:02.010144
MEAN_MOTION    = 13.88312856
ECCENTRICITY   = .0002048
INCLINATION    = 50.0140
RA_OF_ASC_NODE = 246.1461
ARG_OF_PERICENTER = 226.1043
MEAN_ANOMALY   = 133.9686

EPHEMERIS_TYPE = 0
CLASSIFICATION_TYPE = U
NORAD_CAT_ID   = 67436
ELEMENT_SET_NO = 999
REV_AT_EPOCH   = 169
BSTAR          = .19644E-3
MEAN_MOTION_DOT = .91E-6
MEAN_MOTION_DDOT = 0

CCSDS_OMM_VERS = 2.0
CREATION_DATE  = 
ORIGINATOR     = 

OBJECT_NAME    = HULIANWANG DIGUI-139
OBJECT_ID      = 2026-007C
CENTER_NAME    = EARTH
REF_FRAME      = TEME
TIME_SYSTEM    = UTC
MEAN_ELEMENT_THEORY = SGP/SGP4

EPOCH          = 2026-01-25T18:08:19.042944
MEAN_MOTION    = 13.88393254
ECCENTRICITY   = .0000965
INCLINATION    = 50.0034
RA_OF_ASC_NODE = 246.1646
ARG_OF_PERICENTER = 336.6038
MEAN_ANOMALY   = 23.4816

EPHEMERIS_TYPE = 0
CLASSIFICATION_TYPE = U
NORAD_CAT_ID   = 67437
ELEMENT_SET_NO = 999
REV_AT_EPOCH   = 169
BSTAR          = .23446E-3
MEAN_MOTION_DOT = .137E-5
MEAN_MOTION_DDOT = 0

CCSDS_OMM_VERS = 2.0
CREATION_DATE  = 
ORIGINATOR     = 

OBJECT_NAME    = HULIANWANG DIGUI-140
OBJECT_ID      = 2026-007D
CENTER_NAME    = EARTH
REF_FRAME      = TEME
TIME_SYSTEM    = UTC
MEAN_ELEMENT_THEORY = SGP/SGP4

EPOCH          = 2026-01-25T02:39:12.492000
MEAN_MOTION    = 13.88269827
ECCENTRICITY   = .0003277
INCLINATION    = 50.0038
RA_OF_ASC_NODE = 248.7599
ARG_OF_PERICENTER = 277.0443
MEAN_ANOMALY   = 83.0082

EPHEMERIS_TYPE = 0
CLASSIFICATION_TYPE = U
NORAD_CAT_ID   = 67438
ELEMENT_SET_NO = 999
REV_AT_EPOCH   = 160
BSTAR          = .23233E-3
MEAN_MOTION_DOT = .134E-5
MEAN_MOTION_DDOT = 0

CCSDS_OMM_VERS = 2.0
CREATION_DATE  = 
ORIGINATOR     = 

OBJECT_NAME    = HULIANWANG DIGUI-141
OBJECT_ID      = 2026-007E
CENTER_NAME    = EARTH
REF_FRAME      = TEME
TIME_SYSTEM    = UTC
MEAN_ELEMENT_THEORY = SGP/SGP4

EPOCH          = 2026-01-24T21:21:41.627232
MEAN_MOTION    = 13.89617280
ECCENTRICITY   = .000154
INCLINATION    = 50.0076
RA_OF_ASC_NODE = 249.5773
ARG_OF_PERICENTER = 268.5914
MEAN_ANOMALY   = 91.4808

EPHEMERIS_TYPE = 0
CLASSIFICATION_TYPE = U
NORAD_CAT_ID   = 67439
ELEMENT_SET_NO = 999
REV_AT_EPOCH   = 157
BSTAR          = .21419E-3
MEAN_MOTION_DOT = .118E-5
MEAN_MOTION_DDOT = 0

CCSDS_OMM_VERS = 2.0
CREATION_DATE  = 
ORIGINATOR     = 

OBJECT_NAME    = HULIANWANG DIGUI-142
OBJECT_ID      = 2026-007F
CENTER_NAME    = EARTH
REF_FRAME      = TEME
TIME_SYSTEM    = UTC
MEAN_ELEMENT_THEORY = SGP/SGP4

EPOCH          = 2026-01-25T18:02:22.557408
MEAN_MOTION    = 13.89216530
ECCENTRICITY   = .0001206
INCLINATION    = 50.0123
RA_OF_ASC_NODE = 246.1616
ARG_OF_PERICENTER = 338.0395
MEAN_ANOMALY   = 22.0452

EPHEMERIS_TYPE = 0
CLASSIFICATION_TYPE = U
NORAD_CAT_ID   = 67440
ELEMENT_SET_NO = 999
REV_AT_EPOCH   = 169
BSTAR          = .23494E-4
MEAN_MOTION_DOT = -.117E-5
MEAN_MOTION_DDOT = 0

CCSDS_OMM_VERS = 2.0
CREATION_DATE  = 
ORIGINATOR     = 

OBJECT_NAME    = HULIANWANG DIGUI-143
OBJECT_ID      = 2026-007G
CENTER_NAME    = EARTH
REF_FRAME      = TEME
TIME_SYSTEM    = UTC
MEAN_ELEMENT_THEORY = SGP/SGP4

EPOCH          = 2026-01-25T18:00:40.036032
MEAN_MOTION    = 13.89146225
ECCENTRICITY   = .0001976
INCLINATION    = 50.0147
RA_OF_ASC_NODE = 246.1467
ARG_OF_PERICENTER = 7.7334
MEAN_ANOMALY   = 352.3595

EPHEMERIS_TYPE = 0
CLASSIFICATION_TYPE = U
NORAD_CAT_ID   = 67441
ELEMENT_SET_NO = 999
REV_AT_EPOCH   = 169
BSTAR          = .20071E-3
MEAN_MOTION_DOT = .99E-6
MEAN_MOTION_DDOT = 0

