STARLINK-36515          
1 67430U 26005AC  26025.83336806 -.01559292  00000+0 -10741-1 0  9993
2 67430  43.0001 125.6774 0001454 295.6448 187.3343 15.76784246  3219
STARLINK-36443          
1 67431U 26005AD  26025.83336806 -.01574574  00000+0 -10911-1 0  9993
2 67431  43.0001 125.6619 0001621 290.2673 198.6403 15.76680382  3246
STARLINK-36460          
1 67432U 26005AE  26025.83336806 -.01666394  00000+0 -11374-1 0  9990
2 67432  43.0000 125.6570 0001388 288.9403 201.9039 15.76695328  3291
YAOGAN-50 01            
1 67433U 26006A   26025.81167267  .00000400  00000+0  19159-3 0  9991
2 67433 142.0305 247.7431 0000690 272.2456  87.8184 13.83250583  1714
CZ-6A R/B               
1 67434U 26006B   26025.59978700  .00001754  00000+0  20725-3 0  9993
2 67434 142.0433 253.5760 0202424 169.8106 190.6801 14.62271920  1769
HULIANWANG DIGUI-137    
1 67435U 26007A   26025.75476183  .00000097  00000+0  20067-3 0  9999
2 67435  50.0118 246.1588 0001349 228.2080 131.8703 13.88520819  1699
HULIANWANG DIGUI-138    
1 67436U 26007B   26025.75696771  .00000091  00000+0  19644-3 0  9990
2 67436  50.0140 246.1461 0002048 226.1043 133.9686 13.88312856  1691
HULIANWANG DIGUI-139    
1 67437U 26007C   26025.75577596  .00000137  00000+0  23446-3 0  9990
2 67437  50.0034 246.1646 0000965 336.6038  23.4816 13.88393254  1695
HULIANWANG DIGUI-140    
1 67438U 26007D   26025.11056125  .00000134  00000+0  23233-3 0  9992
2 67438  50.0038 248.7599 0003277 277.0443  83.0082 13.88269827  1608
HULIANWANG DIGUI-141    
1 67439U 26007E   26024.89006513  .00000118  00000+0  21419-3 0  9999
2 67439  50.0076 249.5773 0001540 268.5914  91.4808 13.89617280  1579
HULIANWANG DIGUI-142    
1 67440U 26007F   26025.75164997 -.00000117  00000+0  23494-4 0  9994
2 67440  50.0123 246.1616 0001206 338.0395  22.0452 13.89216530  1699
HULIANWANG DIGUI-143    
1 67441U 26007G   26025.75046338  .00000099  00000+0  20071-3 0  9998
2 67441  50.0147 246.1467 0001976   7.7334 352.3595 13.89146225  1697
